start=new Date('2023-02-04T00:00:00.000Z').valueOf();
sats=[{"REF_FRAME":"TEME","EPHEMERIS_TYPE":"0","TLE_LINE1":"1 54184U 22141AD  23034.24089130  .00002325  00000-0  16420-3 0  9999","APOAPSIS":"540.694","OBJECT_NAME":"STARLINK-5162","PERIOD":"95.439","RA_OF_ASC_NODE":"38.5137","ELEMENT_SET_NO":"999","FILE":"3770323","RCS_SIZE":"LARGE","MEAN_MOTION_DOT":"0.00002325","TLE_LINE2":"2 54184  53.2179  38.5137 0001264  96.8388 263.2748 15.08815579 15202","SEMIMAJOR_AXIS":"6917.955","DECAY_DATE":null,"MEAN_ANOMALY":"263.2748","CLASSIFICATION_TYPE":"U","ECCENTRICITY":"0.00012640","TIME_SYSTEM":"UTC","NORAD_CAT_ID":"54184","LAUNCH_DATE":"2022-10-28","ARG_OF_PERICENTER":"96.8388","REV_AT_EPOCH":"1520","INCLINATION":"53.2179","BSTAR":"0.00016420000000","OBJECT_ID":"2022-141AD","OBJECT_TYPE":"PAYLOAD","EPOCH":"2023-02-03T05:46:53.008320","MEAN_ELEMENT_THEORY":"SGP4","GP_ID":"224314245","SITE":"AFWTR","COUNTRY_CODE":"US","MEAN_MOTION_DDOT":"0.0000000000000","MEAN_MOTION":"15.08815579","PERIAPSIS":"538.946","CENTER_NAME":"EARTH"},{"GP_ID":"224315495","MEAN_ELEMENT_THEORY":"SGP4","SITE":"AFWTR","EPOCH":"2023-02-03T07:38:10.143744","COUNTRY_CODE":"US","MEAN_MOTION":"15.08840990","MEAN_MOTION_DDOT":"0.0000000000000","CENTER_NAME":"EARTH","PERIAPSIS":"538.855","ECCENTRICITY":"0.00012830","NORAD_CAT_ID":"54185","TIME_SYSTEM":"UTC","REV_AT_EPOCH":"1521","LAUNCH_DATE":"2022-10-28","ARG_OF_PERICENTER":"96.5660","OBJECT_TYPE":"PAYLOAD","OBJECT_ID":"2022-141AE","BSTAR":"0.00008307100000","INCLINATION":"53.2177","FILE":"3770323","ELEMENT_SET_NO":"999","SEMIMAJOR_AXIS":"6917.877","TLE_LINE2":"2 54185  53.2177  38.2884 0001283  96.5660 263.5478 15.08840990 15217","MEAN_MOTION_DOT":"0.00001034","RCS_SIZE":"LARGE","DECAY_DATE":null,"CLASSIFICATION_TYPE":"U","MEAN_ANOMALY":"263.5478","TLE_LINE1":"1 54185U 22141AE  23034.31817296  .00001034  00000-0  83071-4 0  9993","EPHEMERIS_TYPE":"0","REF_FRAME":"TEME","APOAPSIS":"540.630","OBJECT_NAME":"STARLINK-5235","PERIOD":"95.437","RA_OF_ASC_NODE":"38.2884"},{"PERIAPSIS":"543.850","CENTER_NAME":"EARTH","MEAN_MOTION":"15.07209595","MEAN_MOTION_DDOT":"0.0000000000000","COUNTRY_CODE":"US","EPOCH":"2023-02-04T00:00:00.999648","GP_ID":"224350749","MEAN_ELEMENT_THEORY":"SGP4","SITE":"AFWTR","OBJECT_TYPE":"PAYLOAD","OBJECT_ID":"2022-141AF","INCLINATION":"53.2176","BSTAR":"0.00093707000000","REV_AT_EPOCH":"130","ARG_OF_PERICENTER":"99.1453","LAUNCH_DATE":"2022-10-28","NORAD_CAT_ID":"54186","TIME_SYSTEM":"UTC","ECCENTRICITY":"0.00012760","CLASSIFICATION_TYPE":"U","MEAN_ANOMALY":"151.4229","DECAY_DATE":null,"TLE_LINE2":"2 54186  53.2176  25.6704 0001276  99.1453 151.4229 15.07209595  1302","SEMIMAJOR_AXIS":"6922.868","RCS_SIZE":"LARGE","MEAN_MOTION_DOT":"0.00014011","ELEMENT_SET_NO":"999","FILE":"3770748","RA_OF_ASC_NODE":"25.6704","PERIOD":"95.541","APOAPSIS":"545.617","OBJECT_NAME":"STARLINK-5194","EPHEMERIS_TYPE":"0","TLE_LINE1":"1 54186U 22141AF  23035.00001157  .00014011  00000-0  93707-3 0  9997","REF_FRAME":"TEME"},{"REV_AT_EPOCH":"1521","LAUNCH_DATE":"2022-10-28","ARG_OF_PERICENTER":"91.9793","OBJECT_TYPE":"PAYLOAD","OBJECT_ID":"2022-141AG","BSTAR":"0.00017353000000","INCLINATION":"53.2190","ECCENTRICITY":"0.00013110","NORAD_CAT_ID":"54187","TIME_SYSTEM":"UTC","MEAN_MOTION":"15.08840706","MEAN_MOTION_DDOT":"0.0000000000000","CENTER_NAME":"EARTH","PERIAPSIS":"538.836","SITE":"AFWTR","GP_ID":"224314495","MEAN_ELEMENT_THEORY":"SGP4","EPOCH":"2023-02-03T07:48:46.525536","COUNTRY_CODE":"US","PERIOD":"95.438","RA_OF_ASC_NODE":"38.3522","TLE_LINE1":"1 54187U 22141AG  23034.32553849  .00002475  00000-0  17353-3 0  9996","EPHEMERIS_TYPE":"0","REF_FRAME":"TEME","OBJECT_NAME":"STARLINK-5240","APOAPSIS":"540.650","DECAY_DATE":null,"CLASSIFICATION_TYPE":"U","MEAN_ANOMALY":"268.1350","FILE":"3770323","ELEMENT_SET_NO":"999","SEMIMAJOR_AXIS":"6917.878","TLE_LINE2":"2 54187  53.2190  38.3522 0001311  91.9793 268.1350 15.08840706 15217","MEAN_MOTION_DOT":"0.00002475","RCS_SIZE":"LARGE"},{"OBJECT_ID":"2022-141AH","OBJECT_TYPE":"PAYLOAD","INCLINATION":"53.2191","BSTAR":"0.00007909000000","REV_AT_EPOCH":"1535","ARG_OF_PERICENTER":"99.0020","LAUNCH_DATE":"2022-10-28","NORAD_CAT_ID":"54188","TIME_SYSTEM":"UTC","ECCENTRICITY":"0.00011830","PERIAPSIS":"538.907","CENTER_NAME":"EARTH","MEAN_MOTION":"15.08846423","MEAN_MOTION_DDOT":"0.0000000000000","COUNTRY_CODE":"US","EPOCH":"2023-02-03T08:32:33.176256","GP_ID":"224314745","MEAN_ELEMENT_THEORY":"SGP4","SITE":"AFWTR","RA_OF_ASC_NODE":"28.5434","PERIOD":"95.437","APOAPSIS":"540.544","OBJECT_NAME":"STARLINK-5238","EPHEMERIS_TYPE":"0","TLE_LINE1":"1 54188U 22141AH  23034.35593954  .00000971  00000-0  79090-4 0  9997","REF_FRAME":"TEME","CLASSIFICATION_TYPE":"U","MEAN_ANOMALY":"261.1106","DECAY_DATE":null,"TLE_LINE2":"2 54188  53.2191  28.5434 0001183  99.0020 261.1106 15.08846423 15350","SEMIMAJOR_AXIS":"6917.861","RCS_SIZE":"LARGE","MEAN_MOTION_DOT":"0.00000971","ELEMENT_SET_NO":"999","FILE":"3770323"},{"RA_OF_ASC_NODE":"38.0820","PERIOD":"95.541","APOAPSIS":"545.704","OBJECT_NAME":"STARLINK-5182","EPHEMERIS_TYPE":"0","TLE_LINE1":"1 54189U 22141AJ  23034.28765042  .00000294  00000-0  37944-4 0  9999","REF_FRAME":"TEME","CLASSIFICATION_TYPE":"U","MEAN_ANOMALY":"263.3110","DECAY_DATE":null,"TLE_LINE2":"2 54189  53.2183  38.0820 0001397  96.8041 263.3110 15.07208575 15215","SEMIMAJOR_AXIS":"6922.871","RCS_SIZE":"LARGE","MEAN_MOTION_DOT":"0.00000294","ELEMENT_SET_NO":"999","FILE":"3770323","OBJECT_ID":"2022-141AJ","OBJECT_TYPE":"PAYLOAD","INCLINATION":"53.2183","BSTAR":"0.00003794400000","REV_AT_EPOCH":"1521","LAUNCH_DATE":"2022-10-28","ARG_OF_PERICENTER":"96.8041","NORAD_CAT_ID":"54189","TIME_SYSTEM":"UTC","ECCENTRICITY":"0.00013970","PERIAPSIS":"543.769","CENTER_NAME":"EARTH","MEAN_MOTION":"15.07208575","MEAN_MOTION_DDOT":"0.0000000000000","COUNTRY_CODE":"US","EPOCH":"2023-02-03T06:54:12.996288","SITE":"AFWTR","GP_ID":"224314996","MEAN_ELEMENT_THEORY":"SGP4"},{"TLE_LINE1":"1 54190U 22141AK  23034.28601312 -.00002021  00000-0 -10883-3 0  9994","EPHEMERIS_TYPE":"0","REF_FRAME":"TEME","OBJECT_NAME":"STARLINK-5281","APOAPSIS":"540.861","PERIOD":"95.436","RA_OF_ASC_NODE":"28.8200","FILE":"3770323","ELEMENT_SET_NO":"999","SEMIMAJOR_AXIS":"6917.829","TLE_LINE2":"2 54190  53.2199  28.8200 0001686  98.5391 261.5793 15.08856721 15345","MEAN_MOTION_DOT":"-0.00002021","RCS_SIZE":"LARGE","DECAY_DATE":null,"CLASSIFICATION_TYPE":"U","MEAN_ANOMALY":"261.5793","ECCENTRICITY":"0.00016860","NORAD_CAT_ID":"54190","TIME_SYSTEM":"UTC","REV_AT_EPOCH":"1534","LAUNCH_DATE":"2022-10-28","ARG_OF_PERICENTER":"98.5391","OBJECT_TYPE":"PAYLOAD","OBJECT_ID":"2022-141AK","BSTAR":"-0.00010883000000","INCLINATION":"53.2199","GP_ID":"224315247","SITE":"AFWTR","MEAN_ELEMENT_THEORY":"SGP4","EPOCH":"2023-02-03T06:51:51.533568","COUNTRY_CODE":"US","MEAN_MOTION":"15.08856721","MEAN_MOTION_DDOT":"0.0000000000000","CENTER_NAME":"EARTH","PERIAPSIS":"538.528"},{"MEAN_ELEMENT_THEORY":"SGP4","GP_ID":"224313996","SITE":"AFWTR","EPOCH":"2023-02-03T07:07:47.058816","COUNTRY_CODE":"US","MEAN_MOTION":"15.08827732","MEAN_MOTION_DDOT":"0.0000000000000","CENTER_NAME":"EARTH","PERIAPSIS":"538.743","ECCENTRICITY":"0.00015030","NORAD_CAT_ID":"54191","TIME_SYSTEM":"UTC","REV_AT_EPOCH":"1534","ARG_OF_PERICENTER":"91.2126","LAUNCH_DATE":"2022-10-28","OBJECT_ID":"2022-141AL","OBJECT_TYPE":"PAYLOAD","BSTAR":"0.00036143000000","INCLINATION":"53.2197","FILE":"3770323","ELEMENT_SET_NO":"999","SEMIMAJOR_AXIS":"6917.918","TLE_LINE2":"2 54191  53.2197  28.8878 0001503  91.2126 268.9039 15.08827732 15343","MEAN_MOTION_DOT":"0.00005467","RCS_SIZE":"LARGE","DECAY_DATE":null,"CLASSIFICATION_TYPE":"U","MEAN_ANOMALY":"268.9039","TLE_LINE1":"1 54191U 22141AL  23034.29707244  .00005467  00000-0  36143-3 0  9999","EPHEMERIS_TYPE":"0","REF_FRAME":"TEME","APOAPSIS":"540.823","OBJECT_NAME":"STARLINK-4619","PERIOD":"95.438","RA_OF_ASC_NODE":"28.8878"},{"MEAN_ANOMALY":"261.7081","CLASSIFICATION_TYPE":"U","DECAY_DATE":null,"RCS_SIZE":"LARGE","MEAN_MOTION_DOT":"0.00003681","TLE_LINE2":"2 54192  53.2161  28.0147 0001294  98.4058 261.7081 15.08849958 15360","SEMIMAJOR_AXIS":"6917.850","ELEMENT_SET_NO":"999","FILE":"3770323","RA_OF_ASC_NODE":"28.0147","PERIOD":"95.437","APOAPSIS":"540.610","OBJECT_NAME":"STARLINK-5268","REF_FRAME":"TEME","EPHEMERIS_TYPE":"0","TLE_LINE1":"1 54192U 22141AM  23034.38629046  .00003681  00000-0  24920-3 0  9999","PERIAPSIS":"538.820","CENTER_NAME":"EARTH","MEAN_MOTION_DDOT":"0.0000000000000","MEAN_MOTION":"15.08849958","COUNTRY_CODE":"US","EPOCH":"2023-02-03T09:16:15.495744","SITE":"AFWTR","GP_ID":"224314246","MEAN_ELEMENT_THEORY":"SGP4","INCLINATION":"53.2161","BSTAR":"0.00024920000000","OBJECT_TYPE":"PAYLOAD","OBJECT_ID":"2022-141AM","ARG_OF_PERICENTER":"98.4058","LAUNCH_DATE":"2022-10-28","REV_AT_EPOCH":"1536","TIME_SYSTEM":"UTC","NORAD_CAT_ID":"54192","ECCENTRICITY":"0.00012940"},{"APOAPSIS":"540.600","OBJECT_NAME":"STARLINK-5263","REF_FRAME":"TEME","TLE_LINE1":"1 54193U 22141AN  23034.27864714 -.00000297  00000-0 -57608-6 0  9995","EPHEMERIS_TYPE":"0","RA_OF_ASC_NODE":"28.7728","PERIOD":"95.438","MEAN_MOTION_DOT":"-0.00000297","RCS_SIZE":"LARGE","SEMIMAJOR_AXIS":"6917.880","TLE_LINE2":"2 54193  53.2192  28.7728 0001237  88.4812 271.6322 15.08840212 15341","FILE":"3770323","ELEMENT_SET_NO":"999","MEAN_ANOMALY":"271.6322","CLASSIFICATION_TYPE":"U","DECAY_DATE":null,"TIME_SYSTEM":"UTC","NORAD_CAT_ID":"54193","ECCENTRICITY":"0.00012370","BSTAR":"-0.00000057608000","INCLINATION":"53.2192","OBJECT_TYPE":"PAYLOAD","OBJECT_ID":"2022-141AN","ARG_OF_PERICENTER":"88.4812","LAUNCH_DATE":"2022-10-28","REV_AT_EPOCH":"1534","COUNTRY_CODE":"US","SITE":"AFWTR","GP_ID":"224315496","MEAN_ELEMENT_THEORY":"SGP4","EPOCH":"2023-02-03T06:41:15.112896","CENTER_NAME":"EARTH","PERIAPSIS":"538.889","MEAN_MOTION_DDOT":"0.0000000000000","MEAN_MOTION":"15.08840212"}];
